OBJECT_NAME,OBJECT_ID,EPOCH,MEAN_MOTION,ECCENTRICITY,INCLINATION,RA_OF_ASC_NODE,ARG_OF_PERICENTER,MEAN_ANOMALY,EPHEMERIS_TYPE,CLASSIFICATION_TYPE,NORAD_CAT_ID,ELEMENT_SET_NO,REV_AT_EPOCH,BSTAR,MEAN_MOTION_DOT,MEAN_MOTION_DDOT
INTELSAT 35E (IS-35E),2017-041A,2026-06-20T09:14:35.847168,1.00272940,.0002053,0.0180,23.6269,67.1464,281.9730,0,U,42818,999,3284,0,-.242E-5,0
COSMOS 2520,2017-046A,2026-06-20T06:11:56.848704,1.00272047,.0000868,0.0458,95.4065,28.4578,282.5989,0,U,42907,999,3242,0,.132E-5,0
TDRS 13,2017-047A,2026-06-20T09:21:12.711744,1.00271929,.0014653,3.4525,2.8357,106.4266,288.2031,0,U,42915,999,3238,0,-.105E-5,0
QZS-3 (MICHIBIKI-3),2017-048A,2026-06-20T11:37:19.065216,1.00274667,.0001992,0.0575,161.6136,282.9218,125.4966,0,U,42917,999,3229,0,-.352E-5,0
AMAZONAS 5,2017-053A,2026-06-20T02:59:57.866784,1.00272263,.00019717,0.0322,325.1798,73.4746,213.6749,0,U,42934,999,3207,0,-.288E-5,0
ASIASAT 9,2017-057A,2026-06-21T05:39:38.551104,1.00262831,.0002542,0.0418,51.2413,27.7813,37.4783,0,U,42942,999,3190,0,0,0
INTELSAT 37E (IS-37E),2017-059A,2026-06-20T09:19:20.391744,1.00271079,.0002602,0.0188,18.2553,94.8556,277.3301,0,U,42950,999,3209,0,-.145E-5,0
BSAT-4A,2017-059B,2026-06-19T23:57:40.806144,1.00270250,.00040565,0.0337,353.9231,76.8596,306.6773,0,U,42951,999,3182,0,-.355E-5,0
QZS-4 (MICHIBIKI-4),2017-062A,2026-06-18T08:24:11.162016,1.00250086,.0745019,40.1070,343.4662,271.8091,274.2172,0,U,42965,999,3181,0,-.36E-5,0
SES-11 (ECHOSTAR 105),2017-063A,2026-06-20T08:38:26.699136,1.00271096,.0002813,0.0149,3.9068,71.1261,218.1920,0,U,42967,999,3175,0,-.94E-6,0
KOREASAT 5A,2017-067A,2026-06-20T09:56:42.899424,1.00273371,.0000645,0.0149,314.4364,107.1090,109.4054,0,U,42984,999,3156,0,-.363E-5,0
ALCOMSAT 1,2017-078A,2026-06-20T09:17:20.584320,1.00272414,.0002328,0.0229,269.2124,172.6670,301.2401,0,U,43039,999,3132,0,-.191E-5,0
SBIRS GEO-3 (USA 282),2018-009A,2026-06-20T09:31:41.319264,1.00271852,.0001981,2.1865,12.2926,68.2374,171.5933,0,U,43162,999,3087,0,.123E-5,0
AL YAH 3,2018-012A,2026-06-20T09:18:42.952032,1.00272206,.000388,1.5612,83.0720,3.9994,301.0809,0,U,43174,999,3087,0,-.16E-5,0
SES-14,2018-012B,2026-06-20T04:02:50.231616,1.00279470,.00012355,0.0176,27.7377,43.1327,210.7211,0,U,43175,999,705,0,-.283E-5,0
GOES 17,2018-022A,2026-06-20T09:20:38.499936,1.00269480,.0000598,0.9463,85.6559,28.1563,205.4138,0,U,43226,999,3045,0,-.187E-5,0
HISPASAT 30W-6,2018-023A,2026-06-20T01:33:19.881216,1.00271051,.00057602,0.0445,43.1237,29.8638,188.6152,0,U,43228,999,3043,0,-.221E-5,0
SUPERBIRD-B3,2018-033A,2026-06-20T09:04:38.784288,1.00270639,.0001175,0.0262,290.7153,169.2877,106.7514,0,U,43271,999,3009,0,-.97E-6,0
HYLAS 4,2018-033B,2026-06-20T00:41:34.846656,1.00271055,.00011232,0.0189,20.7021,65.0638,159.3513,0,U,43272,999,3009,0,-.239E-5,0
IRNSS-1I,2018-035A,2026-06-15T20:09:20.172384,1.00272046,.00178117,28.7520,74.2167,181.5598,5.5147,0,U,43286,999,3006,0,.62E-6,0
USA 283,2018-036A,2026-06-19T12:54:38.708064,1.00268506,.0000086,0.0091,53.6723,77.7836,104.0737,0,U,43339,999,2531,0,0,0
COSMOS 2526,2018-037A,2026-06-21T16:48:52.822368,1.00272275,.0000263,0.0295,76.0753,107.5163,106.5855,0,U,43432,999,3000,0,-.345E-5,0
APSTAR-6C,2018-041A,2026-06-21T21:58:36.855840,1.00273592,.0000882,0.0262,331.1015,26.8735,15.7910,0,U,43450,999,2985,0,-.317E-5,0
BANGABANDHUSAT-1,2018-044A,2026-06-20T10:42:39.157056,1.00273295,.0001868,0.0361,91.8229,7.1568,89.4313,0,U,43463,999,2974,0,-.367E-5,0
SES-12,2018-049A,2026-06-20T08:08:51.267264,1.00269236,.0000672,0.0148,14.7336,264.4074,206.6153,0,U,43488,999,2945,0,-.274E-5,0
FENGYUN 2H,2018-050A,2026-06-21T13:09:43.725600,1.00269411,.0001805,3.0437,79.0286,136.1614,331.3565,0,U,43491,999,2948,0,-.131E-5,0
BEIDOU-2 IGSO-7,2018-057A,2026-06-20T22:01:56.983296,1.00249965,.0104976,55.1960,163.0240,238.0113,308.2121,0,U,43539,999,2916,0,-.23E-6,0
TELSTAR 19V,2018-059A,2026-06-20T09:06:29.124000,1.00269913,.0002641,0.0156,116.4746,358.4978,227.2262,0,U,43562,999,2917,0,-.284E-5,0
TELKOM 4 (MERAH PUTIH),2018-064A,2026-06-20T09:55:20.529984,1.00269652,.0001515,0.0169,12.0761,103.4112,49.9772,0,U,43587,999,2891,0,0,0
TELSTAR 18V,2018-069A,2026-06-20T06:38:33.468000,1.00271609,.0001817,0.0158,299.0001,141.1630,65.9528,0,U,43611,999,2867,0,-.299E-5,0
AZERSPACE 2 (IS-38),2018-074A,2026-06-20T04:29:25.184256,1.00271425,.0001411,0.0176,12.5072,75.0400,293.3134,0,U,43632,999,2847,0,.132E-5,0
HORIZONS-3E,2018-074B,2026-06-19T20:31:26.550624,1.00267073,.00008931,0.0016,83.0794,215.5434,86.3125,0,U,43633,999,2836,0,-.37E-6,0
