[
  {
    "name": "INTELSAT 35E (IS-35E)",
    "line1": "1 42818U 17041A   26171.38513712 -.00000242  00000+0  00000+0 0  9990",
    "line2": "2 42818   0.0180  23.6269 0002053  67.1464 281.9730  1.00272940 32842"
  },
  {
    "name": "COSMOS 2520",
    "line1": "1 42907U 17046A   26171.25829686  .00000132  00000+0  00000+0 0  9997",
    "line2": "2 42907   0.0458  95.4065 0000868  28.4578 282.5989  1.00272047 32423"
  },
  {
    "name": "TDRS 13",
    "line1": "1 42915U 17047A   26171.38973046 -.00000105  00000+0  00000+0 0  9992",
    "line2": "2 42915   3.4525   2.8357 0014653 106.4266 288.2031  1.00271929 32382"
  },
  {
    "name": "QZS-3 (MICHIBIKI-3)",
    "line1": "1 42917U 17048A   26171.48424844 -.00000352  00000+0  00000+0 0  9997",
    "line2": "2 42917   0.0575 161.6136 0001992 282.9218 125.4966  1.00274667 32291"
  },
  {
    "name": "AMAZONAS 5",
    "line1": "1 42934U 17053A   26171.12497531 -.00000288  00000+0  00000+0 0  9994",
    "line2": "2 42934   0.0322 325.1798 0001971  73.4746 213.6749  1.00272263 32072"
  },
  {
    "name": "ASIASAT 9",
    "line1": "1 42942U 17057A   26172.23586286  .00000000  00000+0  00000+0 0  9997",
    "line2": "2 42942   0.0418  51.2413 0002542  27.7813  37.4783  1.00262831 31901"
  },
  {
    "name": "INTELSAT 37E (IS-37E)",
    "line1": "1 42950U 17059A   26171.38843046 -.00000145  00000+0  00000+0 0  9994",
    "line2": "2 42950   0.0188  18.2553 0002602  94.8556 277.3301  1.00271079 32094"
  },
  {
    "name": "BSAT-4A",
    "line1": "1 42951U 17059B   26170.99838896 -.00000355  00000+0  00000+0 0  9991",
    "line2": "2 42951   0.0337 353.9231 0004056  76.8596 306.6773  1.00270250 31821"
  },
  {
    "name": "QZS-4 (MICHIBIKI-4)",
    "line1": "1 42965U 17062A   26169.35012919 -.00000360  00000+0  00000+0 0  9994",
    "line2": "2 42965  40.1070 343.4662 0745019 271.8091 274.2172  1.00250086 31812"
  },
  {
    "name": "SES-11 (ECHOSTAR 105)",
    "line1": "1 42967U 17063A   26171.36003124 -.00000094  00000+0  00000+0 0  9993",
    "line2": "2 42967   0.0149   3.9068 0002813  71.1261 218.1920  1.00271096 31757"
  },
  {
    "name": "KOREASAT 5A",
    "line1": "1 42984U 17067A   26171.41438541 -.00000363  00000+0  00000+0 0  9996",
    "line2": "2 42984   0.0149 314.4364 0000645 107.1090 109.4054  1.00273371 31563"
  },
  {
    "name": "ALCOMSAT 1",
    "line1": "1 43039U 17078A   26171.38704380 -.00000191  00000+0  00000+0 0  9992",
    "line2": "2 43039   0.0229 269.2124 0002328 172.6670 301.2401  1.00272414 31325"
  },
  {
    "name": "SBIRS GEO-3 (USA 282)",
    "line1": "1 43162U 18009A   26171.39700601  .00000123  00000+0  00000+0 0  9991",
    "line2": "2 43162   2.1865  12.2926 0001981  68.2374 171.5933  1.00271852 30874"
  },
  {
    "name": "AL YAH 3",
    "line1": "1 43174U 18012A   26171.38799713 -.00000160  00000+0  00000+0 0  9991",
    "line2": "2 43174   1.5612  83.0720 0003880   3.9994 301.0809  1.00272206 30878"
  },
  {
    "name": "SES-14",
    "line1": "1 43175U 18012B   26171.16863694 -.00000283  00000+0  00000+0 0  9994",
    "line2": "2 43175   0.0176  27.7377 0001235  43.1327 210.7211  1.00279470  7056"
  },
  {
    "name": "GOES 17",
    "line1": "1 43226U 18022A   26171.38933449 -.00000187  00000+0  00000+0 0  9995",
    "line2": "2 43226   0.9463  85.6559 0000598  28.1563 205.4138  1.00269480 30451"
  },
  {
    "name": "HISPASAT 30W-6",
    "line1": "1 43228U 18023A   26171.06481344 -.00000221  00000+0  00000+0 0  9994",
    "line2": "2 43228   0.0445  43.1237 0005760  29.8638 188.6152  1.00271051 30436"
  },
  {
    "name": "SUPERBIRD-B3",
    "line1": "1 43271U 18033A   26171.37822667 -.00000097  00000+0  00000+0 0  9995",
    "line2": "2 43271   0.0262 290.7153 0001175 169.2877 106.7514  1.00270639 30094"
  },
  {
    "name": "HYLAS 4",
    "line1": "1 43272U 18033B   26171.02887554 -.00000239  00000+0  00000+0 0  9992",
    "line2": "2 43272   0.0189  20.7021 0001123  65.0638 159.3513  1.00271055 30095"
  },
  {
    "name": "IRNSS-1I",
    "line1": "1 43286U 18035A   26166.83981681  .00000062  00000+0  00000+0 0  9991",
    "line2": "2 43286  28.7520  74.2167 0017811 181.5598   5.5147  1.00272046 30064"
  },
  {
    "name": "USA 283",
    "line1": "1 43339U 18036A   26170.53794801  .00000000  00000+0  00000+0 0  9991",
    "line2": "2 43339   0.0091  53.6723 0000086  77.7836 104.0737  1.00268506 25313"
  },
  {
    "name": "COSMOS 2526",
    "line1": "1 43432U 18037A   26172.70061137 -.00000345  00000+0  00000+0 0  9999",
    "line2": "2 43432   0.0295  76.0753 0000263 107.5163 106.5855  1.00272275 30005"
  },
  {
    "name": "APSTAR-6C",
    "line1": "1 43450U 18041A   26172.91570435 -.00000317  00000+0  00000+0 0  9992",
    "line2": "2 43450   0.0262 331.1015 0000882  26.8735  15.7910  1.00273592 29857"
  },
  {
    "name": "BANGABANDHUSAT-1",
    "line1": "1 43463U 18044A   26171.44628654 -.00000367  00000+0  00000+0 0  9998",
    "line2": "2 43463   0.0361  91.8229 0001868   7.1568  89.4313  1.00273295 29742"
  },
  {
    "name": "SES-12",
    "line1": "1 43488U 18049A   26171.33948226 -.00000274  00000+0  00000+0 0  9995",
    "line2": "2 43488   0.0148  14.7336 0000672 264.4074 206.6153  1.00269236 29450"
  },
  {
    "name": "FENGYUN 2H",
    "line1": "1 43491U 18050A   26172.54842275 -.00000131  00000+0  00000+0 0  9994",
    "line2": "2 43491   3.0437  79.0286 0001805 136.1614 331.3565  1.00269411 29481"
  },
  {
    "name": "BEIDOU-2 IGSO-7",
    "line1": "1 43539U 18057A   26171.91802064 -.00000023  00000+0  00000+0 0  9996",
    "line2": "2 43539  55.1960 163.0240 0104976 238.0113 308.2121  1.00249965 29164"
  },
  {
    "name": "TELSTAR 19V",
    "line1": "1 43562U 18059A   26171.37950375 -.00000284  00000+0  00000+0 0  9992",
    "line2": "2 43562   0.0156 116.4746 0002641 358.4978 227.2262  1.00269913 29173"
  },
  {
    "name": "TELKOM 4 (MERAH PUTIH)",
    "line1": "1 43587U 18064A   26171.41343206  .00000000  00000+0  00000+0 0  9994",
    "line2": "2 43587   0.0169  12.0761 0001515 103.4112  49.9772  1.00269652 28915"
  },
  {
    "name": "TELSTAR 18V",
    "line1": "1 43611U 18069A   26171.27677625 -.00000299  00000+0  00000+0 0  9997",
    "line2": "2 43611   0.0158 299.0001 0001817 141.1630  65.9528  1.00271609 28679"
  },
  {
    "name": "AZERSPACE 2 (IS-38)",
    "line1": "1 43632U 18074A   26171.18709704  .00000132  00000+0  00000+0 0  9995",
    "line2": "2 43632   0.0176  12.5072 0001411  75.0400 293.3134  1.00271425 28472"
  },
  {
    "name": "HORIZONS-3E",
    "line1": "1 43633U 18074B   26170.85516841 -.00000037  00000+0  00000+0 0  9992",
    "line2": "2 43633   0.0016  83.0794 0000893 215.5434  86.3125  1.00267073 28363"
  }
]